{"fetched_at":"2026-07-19T17:31:14.814Z","source":"https://celestrak.org/NORAD/elements/gp.php?GROUP=spire&FORMAT=JSON","constellation":"spire","records":[{"OBJECT_NAME":"LEMUR-2-VALHALLA","OBJECT_ID":"2024-022B","EPOCH":"2026-07-19T02:32:17.054880","CLASSIFICATION_TYPE":"U","MEAN_MOTION":15.40559226,"ECCENTRICITY":0.00088128,"INCLINATION":97.4078,"RA_OF_ASC_NODE":50.4973,"ARG_OF_PERICENTER":10.6002,"MEAN_ANOMALY":349.5428,"EPHEMERIS_TYPE":0,"NORAD_CAT_ID":58900,"ELEMENT_SET_NO":999,"REV_AT_EPOCH":13718,"BSTAR":0.00020740979,"MEAN_MOTION_DOT":0.00008353,"MEAN_MOTION_DDOT":0},{"OBJECT_NAME":"LEMUR-2-CAEL","OBJECT_ID":"2024-022E","EPOCH":"2026-07-19T02:06:33.146496","CLASSIFICATION_TYPE":"U","MEAN_MOTION":15.41933743,"ECCENTRICITY":0.00066872,"INCLINATION":97.4062,"RA_OF_ASC_NODE":51.4728,"ARG_OF_PERICENTER":355.088,"MEAN_ANOMALY":5.03,"EPHEMERIS_TYPE":0,"NORAD_CAT_ID":58903,"ELEMENT_SET_NO":999,"REV_AT_EPOCH":13725,"BSTAR":0.00022324361,"MEAN_MOTION_DOT":0.00009414,"MEAN_MOTION_DDOT":0},{"OBJECT_NAME":"LEMUR-2-JOHNNYTRUONG","OBJECT_ID":"2024-043BA","EPOCH":"2026-07-18T23:54:13.671648","CLASSIFICATION_TYPE":"U","MEAN_MOTION":15.62765873,"ECCENTRICITY":0.00038679,"INCLINATION":97.5405,"RA_OF_ASC_NODE":353.7311,"ARG_OF_PERICENTER":83.5411,"MEAN_ANOMALY":276.6287,"EPHEMERIS_TYPE":0,"NORAD_CAT_ID":59146,"ELEMENT_SET_NO":999,"REV_AT_EPOCH":13300,"BSTAR":0.00027932564,"MEAN_MOTION_DOT":0.00025016,"MEAN_MOTION_DDOT":0},{"OBJECT_NAME":"LEMUR-2-TOMATOKECHUP","OBJECT_ID":"2024-149D","EPOCH":"2026-07-19T05:12:37.808064","CLASSIFICATION_TYPE":"U","MEAN_MOTION":15.36630911,"ECCENTRICITY":0.00034158,"INCLINATION":97.3787,"RA_OF_ASC_NODE":282.3582,"ARG_OF_PERICENTER":114.6997,"MEAN_ANOMALY":245.4603,"EPHEMERIS_TYPE":0,"NORAD_CAT_ID":60471,"ELEMENT_SET_NO":999,"REV_AT_EPOCH":10708,"BSTAR":0.00016204635,"MEAN_MOTION_DOT":0.00005714,"MEAN_MOTION_DDOT":0},{"OBJECT_NAME":"LEMUR-2-STELLA","OBJECT_ID":"2024-149BT","EPOCH":"2026-07-19T04:13:08.210208","CLASSIFICATION_TYPE":"U","MEAN_MOTION":15.12417635,"ECCENTRICITY":0.00012338,"INCLINATION":97.6731,"RA_OF_ASC_NODE":282.7841,"ARG_OF_PERICENTER":123.0801,"MEAN_ANOMALY":237.0548,"EPHEMERIS_TYPE":0,"NORAD_CAT_ID":60533,"ELEMENT_SET_NO":999,"REV_AT_EPOCH":10533,"BSTAR":0.00034820885,"MEAN_MOTION_DOT":0.00005982,"MEAN_MOTION_DDOT":0},{"OBJECT_NAME":"LEMUR-2-MARHISYAM","OBJECT_ID":"2024-149BW","EPOCH":"2026-07-19T04:02:18.013920","CLASSIFICATION_TYPE":"U","MEAN_MOTION":15.118207,"ECCENTRICITY":0.00022704,"INCLINATION":97.6874,"RA_OF_ASC_NODE":283.257,"ARG_OF_PERICENTER":63.8052,"MEAN_ANOMALY":296.3411,"EPHEMERIS_TYPE":0,"NORAD_CAT_ID":60536,"ELEMENT_SET_NO":999,"REV_AT_EPOCH":10531,"BSTAR":0.00029918297,"MEAN_MOTION_DOT":0.00005045,"MEAN_MOTION_DDOT":0},{"OBJECT_NAME":"LEMUR-2-AHMED-ASRAR","OBJECT_ID":"2024-149DN","EPOCH":"2026-07-19T04:05:53.018592","CLASSIFICATION_TYPE":"U","MEAN_MOTION":15.13356542,"ECCENTRICITY":0.00015622,"INCLINATION":97.7001,"RA_OF_ASC_NODE":285.4784,"ARG_OF_PERICENTER":187.1525,"MEAN_ANOMALY":172.9683,"EPHEMERIS_TYPE":0,"NORAD_CAT_ID":60576,"ELEMENT_SET_NO":999,"REV_AT_EPOCH":10540,"BSTAR":0.00033035788,"MEAN_MOTION_DOT":0.00005823,"MEAN_MOTION_DDOT":0},{"OBJECT_NAME":"LEMUR-2-LLOYD","OBJECT_ID":"2024-149DP","EPOCH":"2026-07-19T04:35:47.185440","CLASSIFICATION_TYPE":"U","MEAN_MOTION":15.09788807,"ECCENTRICITY":0.00043293,"INCLINATION":97.6732,"RA_OF_ASC_NODE":281.349,"ARG_OF_PERICENTER":61.6391,"MEAN_ANOMALY":298.5274,"EPHEMERIS_TYPE":0,"NORAD_CAT_ID":60577,"ELEMENT_SET_NO":999,"REV_AT_EPOCH":10522,"BSTAR":0.00029330225,"MEAN_MOTION_DOT":0.00004674,"MEAN_MOTION_DDOT":0},{"OBJECT_NAME":"LEMUR-2-SQUIRRELCOMM","OBJECT_ID":"2024-149DQ","EPOCH":"2026-07-19T04:28:12.683424","CLASSIFICATION_TYPE":"U","MEAN_MOTION":15.07467173,"ECCENTRICITY":0.00040148,"INCLINATION":97.6699,"RA_OF_ASC_NODE":281.0022,"ARG_OF_PERICENTER":307.5122,"MEAN_ANOMALY":52.574,"EPHEMERIS_TYPE":0,"NORAD_CAT_ID":60578,"ELEMENT_SET_NO":999,"REV_AT_EPOCH":10522,"BSTAR":0.00019489632,"MEAN_MOTION_DOT":0.00002892,"MEAN_MOTION_DDOT":0},{"OBJECT_NAME":"LEMUR-2-SIERRINI","OBJECT_ID":"2024-149DR","EPOCH":"2026-07-19T04:44:53.872800","CLASSIFICATION_TYPE":"U","MEAN_MOTION":15.11556798,"ECCENTRICITY":0.0006197,"INCLINATION":97.6829,"RA_OF_ASC_NODE":282.9443,"ARG_OF_PERICENTER":80.6962,"MEAN_ANOMALY":279.4968,"EPHEMERIS_TYPE":0,"NORAD_CAT_ID":60579,"ELEMENT_SET_NO":999,"REV_AT_EPOCH":10529,"BSTAR":0.00030865722,"MEAN_MOTION_DOT":0.00005171,"MEAN_MOTION_DDOT":0},{"OBJECT_NAME":"LEMUR-2-WILSON","OBJECT_ID":"2025-009CP","EPOCH":"2026-07-19T05:12:25.633440","CLASSIFICATION_TYPE":"U","MEAN_MOTION":14.95284101,"ECCENTRICITY":0.00017036,"INCLINATION":97.7016,"RA_OF_ASC_NODE":278.1201,"ARG_OF_PERICENTER":300.8351,"MEAN_ANOMALY":59.2702,"EPHEMERIS_TYPE":0,"NORAD_CAT_ID":62694,"ELEMENT_SET_NO":999,"REV_AT_EPOCH":8214,"BSTAR":0.0001023846,"MEAN_MOTION_DOT":0.00001071,"MEAN_MOTION_DDOT":0},{"OBJECT_NAME":"LEMUR-2-STAR-FOX","OBJECT_ID":"2025-009CR","EPOCH":"2026-07-19T04:31:11.996256","CLASSIFICATION_TYPE":"U","MEAN_MOTION":15.02869858,"ECCENTRICITY":0.00017652,"INCLINATION":97.6897,"RA_OF_ASC_NODE":281.5669,"ARG_OF_PERICENTER":26.7663,"MEAN_ANOMALY":333.3653,"EPHEMERIS_TYPE":0,"NORAD_CAT_ID":62696,"ELEMENT_SET_NO":999,"REV_AT_EPOCH":8236,"BSTAR":0.00028088674,"MEAN_MOTION_DOT":0.00003706,"MEAN_MOTION_DDOT":0},{"OBJECT_NAME":"LEMUR-2-ARIANNA","OBJECT_ID":"2025-009CU","EPOCH":"2026-07-19T04:28:58.984320","CLASSIFICATION_TYPE":"U","MEAN_MOTION":15.02872906,"ECCENTRICITY":0.00020741,"INCLINATION":97.684,"RA_OF_ASC_NODE":281.3147,"ARG_OF_PERICENTER":35.4388,"MEAN_ANOMALY":324.6975,"EPHEMERIS_TYPE":0,"NORAD_CAT_ID":62699,"ELEMENT_SET_NO":999,"REV_AT_EPOCH":8236,"BSTAR":0.00029063805,"MEAN_MOTION_DOT":0.00003837,"MEAN_MOTION_DDOT":0},{"OBJECT_NAME":"LEMUR-2-ALISIA","OBJECT_ID":"2025-009DB","EPOCH":"2026-07-19T05:23:46.445568","CLASSIFICATION_TYPE":"U","MEAN_MOTION":15.03207871,"ECCENTRICITY":0.00047689,"INCLINATION":97.6962,"RA_OF_ASC_NODE":282.1855,"ARG_OF_PERICENTER":118.1003,"MEAN_ANOMALY":242.0704,"EPHEMERIS_TYPE":0,"NORAD_CAT_ID":62706,"ELEMENT_SET_NO":999,"REV_AT_EPOCH":10497,"BSTAR":0.00028148087,"MEAN_MOTION_DOT":0.00003748,"MEAN_MOTION_DDOT":0},{"OBJECT_NAME":"LEMUR-2-ROUNDTRIPPER","OBJECT_ID":"2025-009DG","EPOCH":"2026-07-19T05:27:09.851904","CLASSIFICATION_TYPE":"U","MEAN_MOTION":15.04266209,"ECCENTRICITY":0.00044474,"INCLINATION":97.7242,"RA_OF_ASC_NODE":282.8692,"ARG_OF_PERICENTER":57.3239,"MEAN_ANOMALY":302.8415,"EPHEMERIS_TYPE":0,"NORAD_CAT_ID":62711,"ELEMENT_SET_NO":999,"REV_AT_EPOCH":8244,"BSTAR":0.00028245988,"MEAN_MOTION_DOT":0.00003869,"MEAN_MOTION_DDOT":0},{"OBJECT_NAME":"LEMUR-2-MYNAMEISJEFF","OBJECT_ID":"2025-009DH","EPOCH":"2026-07-19T05:25:01.282656","CLASSIFICATION_TYPE":"U","MEAN_MOTION":15.04257529,"ECCENTRICITY":0.00043542,"INCLINATION":97.729,"RA_OF_ASC_NODE":283.268,"ARG_OF_PERICENTER":89.2451,"MEAN_ANOMALY":270.9274,"EPHEMERIS_TYPE":0,"NORAD_CAT_ID":62712,"ELEMENT_SET_NO":999,"REV_AT_EPOCH":8244,"BSTAR":0.00028766768,"MEAN_MOTION_DOT":0.0000394,"MEAN_MOTION_DDOT":0}]}
