LEMUR-2-VALHALLA        
1 58900U 24022B   26200.10575295  .00008353  00000+0  20741-3 0  9991
2 58900  97.4078  50.4973 0008812  10.6002 349.5428 15.40559226137189
LEMUR-2-CAEL            
1 58903U 24022E   26200.08788364  .00009414  00000+0  22324-3 0  9992
2 58903  97.4062  51.4728 0006687 355.0880   5.0300 15.41933743137254
LEMUR-2-JOHNNYTRUONG    
1 59146U 24043BA  26199.99599157  .00025016  00000+0  27933-3 0  9999
2 59146  97.5405 353.7311 0003867  83.5411 276.6287 15.62765873133001
LEMUR-2-TOMATOKECHUP    
1 60471U 24149D   26200.21710426  .00005714  00000+0  16205-3 0  9994
2 60471  97.3787 282.3582 0003415 114.6997 245.4603 15.36630911107086
LEMUR-2-STELLA          
1 60533U 24149BT  26200.17578947  .00005982  00000+0  34821-3 0  9999
2 60533  97.6731 282.7841 0001233 123.0801 237.0548 15.12417635105334
LEMUR-2-MARHISYAM       
1 60536U 24149BW  26200.16826405  .00005045  00000+0  29918-3 0  9997
2 60536  97.6874 283.2570 0002270  63.8052 296.3411 15.11820700105316
LEMUR-2-AHMED-ASRAR     
1 60576U 24149DN  26200.17075253  .00005823  00000+0  33036-3 0  9999
2 60576  97.7001 285.4784 0001562 187.1525 172.9683 15.13356542105402
LEMUR-2-LLOYD           
1 60577U 24149DP  26200.19151835  .00004674  00000+0  29330-3 0  9998
2 60577  97.6732 281.3490 0004329  61.6391 298.5274 15.09788807105222
LEMUR-2-SQUIRRELCOMM    
1 60578U 24149DQ  26200.18625791  .00002892  00000+0  19490-3 0  9991
2 60578  97.6699 281.0022 0004014 307.5122  52.5740 15.07467173105222
LEMUR-2-SIERRINI        
1 60579U 24149DR  26200.19784575  .00005171  00000+0  30866-3 0  9992
2 60579  97.6829 282.9443 0006197  80.6962 279.4968 15.11556798105296
LEMUR-2-WILSON          
1 62694U 25009CP  26200.21696335  .00001071  00000+0  10238-3 0  9993
2 62694  97.7016 278.1201 0001703 300.8351  59.2702 14.95284101 82146
LEMUR-2-STAR-FOX        
1 62696U 25009CR  26200.18833329  .00003706  00000+0  28089-3 0  9997
2 62696  97.6897 281.5669 0001765  26.7663 333.3653 15.02869858 82360
LEMUR-2-ARIANNA         
1 62699U 25009CU  26200.18679380  .00003837  00000+0  29064-3 0  9994
2 62699  97.6840 281.3147 0002074  35.4388 324.6975 15.02872906 82363
LEMUR-2-ALISIA          
1 62706U 25009DB  26200.22484312  .00003748  00000+0  28148-3 0  9990
2 62706  97.6962 282.1855 0004768 118.1003 242.0704 15.03207871104976
LEMUR-2-ROUNDTRIPPER    
1 62711U 25009DG  26200.22719736  .00003869  00000+0  28246-3 0  9990
2 62711  97.7242 282.8692 0004447  57.3239 302.8415 15.04266209 82441
LEMUR-2-MYNAMEISJEFF    
1 62712U 25009DH  26200.22570929  .00003940  00000+0  28767-3 0  9998
2 62712  97.7290 283.2680 0004354  89.2451 270.9274 15.04257529 82447
